NORAD_CAT_ID,OBJECT_NAME,OBJECT_TYPE,EPOCH,MEAN_MOTION,ECCENTRICITY,INCLINATION,RA_OF_ASC_NODE,ARG_OF_PERICENTER,MEAN_ANOMALY,BSTAR,MEAN_MOTION_DOT,MEAN_MOTION_DDOT,TLE_LINE0,TLE_LINE1,TLE_LINE2,SEMIMAJOR_AXIS,PERIOD,APOGEE,PERIGEE,DECAYED
49167.0,STARLINK-3054,PAYLOAD,2024-04-12 19:47:35,14.98337505,0.0003115,70.0,248.9686,272.0326,88.0476,9.2312e-05,1.009e-05,0.0,0 STARLINK-3054,1 49167U 21082AP  24103.82471519  .00001009  00000-0  92312-4 0  9998,2 49167  70.0000 248.9686 0003115 272.0326  88.0476 14.98337505142949,6950.17,96.107,574.2,569.87,0.0
49167.0,STARLINK-3054,PAYLOAD,2024-04-13 13:25:04,14.98329709,0.0002986,70.0004,247.1168,272.5683,87.5134,7.0742e-05,7.51e-06,0.0,0 STARLINK-3054,1 49167U 21082AP  24104.55908096  .00000751  00000-0  70742-4 0  9990,2 49167  70.0004 247.1168 0002986 272.5683  87.5134 14.98329709143050,6950.194,96.107,574.134,569.983,0.0
49167.0,STARLINK-3054,PAYLOAD,2024-04-13 19:49:36,14.98335438,0.0002949,70.0005,246.4435,272.6809,87.4012,0.00013096,1.47e-05,0.0,0 STARLINK-3054,1 49167U 21082AP  24104.82611589  .00001470  00000-0  13096-3 0  9995,2 49167  70.0005 246.4435 0002949 272.6809  87.4012 14.98335438143106,6950.176,96.107,574.091,569.991,0.0
49167.0,STARLINK-3054,PAYLOAD,2024-04-14 11:50:57,14.98331805,0.0002767,70.0009,244.7603,273.9586,86.1257,8.4628e-06,8e-08,0.0,0 STARLINK-3054,1 49167U 21082AP  24105.49372139  .00000008  00000-0  84628-5 0  9991,2 49167  70.0009 244.7603 0002767 273.9586  86.1257 14.98331805143204,6950.187,96.107,573.975,570.129,0.0
49167.0,STARLINK-3054,PAYLOAD,2024-04-14 18:15:29,14.98330756,0.000261,70.0014,244.0882,261.253,98.8334,3.9856e-05,3.83e-06,0.0,0 STARLINK-3054,1 49167U 21082AP  24105.76076034  .00000383  00000-0  39856-4 0  9994,2 49167  70.0014 244.0882 0002610 261.2530  98.8334 14.98330756143231,6950.191,96.107,573.87,570.242,0.0
49167.0,STARLINK-3054,PAYLOAD,2024-04-15 13:29:05,14.98335204,0.0002764,70.0014,242.0687,255.7219,104.3633,8.7869e-05,9.56e-06,0.0,0 STARLINK-3054,1 49167U 21082AP  24106.56187480  .00000956  00000-0  87869-4 0  9994,2 49167  70.0014 242.0687 0002764 255.7219 104.3633 14.98335204143366,6950.177,96.107,573.963,570.121,0.0
49167.0,STARLINK-3054,PAYLOAD,2024-04-15 19:53:37,14.983383,0.0002727,70.0016,241.3954,254.7095,105.3762,0.0001212,1.354e-05,0.0,0 STARLINK-3054,1 49167U 21082AP  24106.82891143  .00001354  00000-0  12120-3 0  9991,2 49167  70.0016 241.3954 0002727 254.7095 105.3762 14.98338300143394,6950.167,96.106,573.928,570.137,0.0
49167.0,STARLINK-3054,PAYLOAD,2024-04-16 13:31:07,14.98326031,0.0002837,70.0012,239.5426,267.9014,92.182,6.4964e-05,6.82e-06,0.0,0 STARLINK-3054,1 49167U 21082AP  24107.56328028  .00000682  00000-0  64964-4 0  9997,2 49167  70.0012 239.5426 0002837 267.9014  92.1820 14.98326031143512,6950.205,96.107,574.042,570.098,0.0
49167.0,STARLINK-3054,PAYLOAD,2024-04-16 15:07:14,14.98338181,0.0002866,70.0005,239.3752,268.6849,91.3981,9.8883e-05,1.087e-05,0.0,0 STARLINK-3054,1 49167U 21082AP  24107.63003143  .00001087  00000-0  98883-4 0  9990,2 49167  70.0005 239.3752 0002866 268.6849  91.3981 14.98338181143518,6950.168,96.106,574.025,570.041,0.0
49167.0,STARLINK-3054,PAYLOAD,2024-04-16 18:19:30,14.98340551,0.000291,70.0005,239.0377,269.238,90.8446,0.00013141,1.476e-05,0.0,0 STARLINK-3054,1 49167U 21082AP  24107.76354896  .00001476  00000-0  13141-3 0  9993,2 49167  70.0005 239.0377 0002910 269.2380  90.8446 14.98340551143542,6950.16,96.106,574.048,570.003,0.0
49167.0,STARLINK-3054,PAYLOAD,2024-04-17 11:57:00,14.98330971,0.000278,70.0015,237.1878,257.5584,102.5264,-2.1752e-05,-3.52e-06,0.0,0 STARLINK-3054,1 49167U 21082AP  24108.49791761 -.00000352  00000-0 -21752-4 0  9992,2 49167  70.0015 237.1878 0002780 257.5584 102.5264 14.98330971143655,6950.19,96.107,573.987,570.123,0.0
49167.0,STARLINK-3054,PAYLOAD,2024-04-17 13:33:08,14.98331012,0.000275,70.0015,237.0191,258.1186,101.9665,-3.7558e-05,-5.41e-06,0.0,0 STARLINK-3054,1 49167U 21082AP  24108.56467805 -.00000541  00000-0 -37558-4 0  9990,2 49167  70.0015 237.0191 0002750 258.1186 101.9665 14.98331012143659,6950.19,96.107,573.966,570.143,0.0
49167.0,STARLINK-3054,PAYLOAD,2024-04-17 18:21:31,14.98334675,0.0002691,70.0019,236.5155,253.5823,106.504,2.0726e-05,1.54e-06,0.0,0 STARLINK-3054,1 49167U 21082AP  24108.76495370  .00000154  00000-0  20726-4 0  9997,2 49167  70.0019 236.5155 0002691 253.5823 106.5040 14.98334675143687,6950.178,96.107,573.914,570.173,0.0
49167.0,STARLINK-3054,PAYLOAD,2024-04-18 11:59:00,14.98334658,0.0002735,70.0024,234.6627,244.5155,115.5721,0.00015657,1.776e-05,0.0,0 STARLINK-3054,1 49167U 21082AP  24109.49930918  .00001776  00000-0  15657-3 0  9997,2 49167  70.0024 234.6627 0002735 244.5155 115.5721 14.98334658143804,6950.178,96.107,573.944,570.143,0.0
49167.0,STARLINK-3054,PAYLOAD,2024-04-18 18:23:30,14.98358911,0.0003068,70.0005,233.9898,266.7447,93.3361,0.00030812,3.588e-05,0.0,0 STARLINK-3054,1 49167U 21082AP  24109.76632935  .00003588  00000-0  30812-3 0  9998,2 49167  70.0005 233.9898 0003068 266.7447  93.3361 14.98358911143840,6950.103,96.105,574.101,569.836,0.0
49167.0,STARLINK-3054,PAYLOAD,2024-04-19 10:24:54,14.98317734,0.0002947,70.0015,232.3079,271.6046,88.4776,-5.4693e-05,-7.45e-06,0.0,0 STARLINK-3054,1 49167U 21082AP  24110.43396498 -.00000745  00000-0 -54693-4 0  9993,2 49167  70.0015 232.3079 0002947 271.6046  88.4776 14.98317734143944,6950.231,96.108,574.144,570.048,0.0
49167.0,STARLINK-3054,PAYLOAD,2024-04-19 13:37:10,14.98317808,0.0002981,70.0004,231.9689,270.6312,89.4505,-2.3162e-05,-3.69e-06,0.0,0 STARLINK-3054,1 49167U 21082AP  24110.56748531 -.00000369  00000-0 -23162-4 0  9995,2 49167  70.0004 231.9689 0002981 270.6312  89.4505 14.98317808143951,6950.231,96.108,574.167,570.024,0.0
49167.0,STARLINK-3054,PAYLOAD,2024-04-19 18:25:34,14.98326201,0.0002702,70.0019,231.4692,236.5891,123.501,2.4152e-05,1.95e-06,0.0,0 STARLINK-3054,1 49167U 21082AP  24110.76775821  .00000195  00000-0  24152-4 0  9994,2 49167  70.0019 231.4692 0002702 236.5891 123.5010 14.98326201143992,6950.205,96.107,573.948,570.192,0.0
49167.0,STARLINK-3054,PAYLOAD,2024-04-20 12:03:05,14.98294046,0.0002639,70.0031,229.617,236.205,123.8858,-0.00061405,-7.405e-05,0.0,0 STARLINK-3054,1 49167U 21082AP  24111.50214742 -.00007405  00000-0 -61405-3 0  9991,2 49167  70.0031 229.6170 0002639 236.2050 123.8858 14.98294046144107,6950.304,96.109,574.003,570.335,0.0
49167.0,STARLINK-3054,PAYLOAD,2024-04-20 18:27:36,14.98294789,0.0002923,70.0029,228.9402,262.493,97.5897,-0.00081932,-9.846e-05,0.0,0 STARLINK-3054,1 49167U 21082AP  24111.76917325 -.00009846  00000-0 -81932-3 0  9994,2 49167  70.0029 228.9402 0002923 262.4930  97.5897 14.98294789144146,6950.302,96.109,574.198,570.135,0.0
49167.0,STARLINK-3054,PAYLOAD,2024-04-21 13:41:13,14.98312551,0.0002277,70.0046,226.9218,246.7578,113.3342,0.000167,1.899e-05,0.0,0 STARLINK-3054,1 49167U 21082AP  24112.57029648  .00001899  00000-0  16700-3 0  9995,2 49167  70.0046 226.9218 0002277 246.7578 113.3342 14.98312551144255,6950.247,96.108,573.694,570.529,0.0
49167.0,STARLINK-3054,PAYLOAD,2024-04-21 16:53:29,14.98317587,0.0002285,70.0044,226.5846,239.2239,120.8696,0.0002363,2.727e-05,0.0,0 STARLINK-3054,1 49167U 21082AP  24112.70381478  .00002727  00000-0  23630-3 0  9993,2 49167  70.0044 226.5846 0002285 239.2239 120.8696 14.98317587144288,6950.231,96.108,573.684,570.508,0.0
49167.0,STARLINK-3054,PAYLOAD,2024-04-22 10:30:59,14.98312015,0.0002469,70.0066,224.737,246.1159,113.9741,3.0276e-05,2.68e-06,0.0,0 STARLINK-3054,1 49167U 21082AP  24113.43818756  .00000268  00000-0  30276-4 0  9991,2 49167  70.0066 224.7370 0002469 246.1159 113.9741 14.98312015144393,6950.249,96.108,573.83,570.397,0.0
49167.0,STARLINK-3054,PAYLOAD,2024-04-22 16:55:30,14.98333779,0.0002785,70.0032,224.0595,256.0775,104.0075,0.00043465,5.097e-05,0.0,0 STARLINK-3054,1 49167U 21082AP  24113.70521871  .00005097  00000-0  43465-3 0  9998,2 49167  70.0032 224.0595 0002785 256.0775 104.0075 14.98333779144439,6950.181,96.107,573.982,570.111,0.0
49167.0,STARLINK-3054,PAYLOAD,2024-04-23 12:09:07,14.98334154,0.0002726,70.0043,222.0413,255.7534,104.3322,0.00033795,3.942e-05,0.0,0 STARLINK-3054,1 49167U 21082AP  24114.50634044  .00003942  00000-0  33795-3 0  9996,2 49167  70.0043 222.0413 0002726 255.7534 104.3322 14.98334154144551,6950.18,96.107,573.94,570.15,0.0
49167.0,STARLINK-3054,PAYLOAD,2024-04-23 13:45:15,14.98335886,0.0002693,70.0036,221.8715,254.703,105.3832,0.00032205,3.752e-05,0.0,0 STARLINK-3054,1 49167U 21082AP  24114.57310015  .00003752  00000-0  32205-3 0  9996,2 49167  70.0036 221.8715 0002693 254.7030 105.3832 14.98335886144558,6950.175,96.107,573.911,570.168,0.0
49167.0,STARLINK-3054,PAYLOAD,2024-04-23 16:57:31,14.98341676,0.0002737,70.0043,221.5378,250.1184,109.9681,0.00040795,4.779e-05,0.0,0 STARLINK-3054,1 49167U 21082AP  24114.70661513  .00004779  00000-0  40795-3 0  9996,2 49167  70.0043 221.5378 0002737 250.1184 109.9681 14.98341676144575,6950.157,96.106,573.924,570.12,0.0
49167.0,STARLINK-3054,PAYLOAD,2024-04-24 13:47:15,14.98358463,0.0002527,70.004,219.3469,252.2474,107.841,0.00036765,4.3e-05,0.0,0 STARLINK-3054,1 49167U 21082AP  24115.57447937  .00004300  00000-0  36765-3 0  9996,2 49167  70.0040 219.3469 0002527 252.2474 107.8410 14.98358463144704,6950.105,96.105,573.726,570.214,0.0
49167.0,STARLINK-3054,PAYLOAD,2024-04-24 16:59:30,14.98362257,0.0002341,70.0046,219.0103,249.5325,110.5583,0.0005161,6.075e-05,0.0,0 STARLINK-3054,1 49167U 21082AP  24115.70799570  .00006075  00000-0  51610-3 0  9991,2 49167  70.0046 219.0103 0002341 249.5325 110.5583 14.98362257144731,6950.093,96.105,573.585,570.331,0.0
49167.0,STARLINK-3054,PAYLOAD,2024-04-25 12:13:08,14.98333534,0.0003205,70.0019,216.9882,275.3239,84.7554,-0.00019055,-2.366e-05,0.0,0 STARLINK-3054,1 49167U 21082AP  24116.50912187 -.00002366  00000-0 -19055-3 0  9999,2 49167  70.0019 216.9882 0003205 275.3239  84.7554 14.98333534144851,6950.182,96.107,574.274,569.819,0.0
